{
  "type": "FeatureCollection",
  "features": [
    {
      "type": "Feature",
      "properties": {
        "norad_id": 19071,
        "name": "OSCAR 32",
        "group": "nnss",
        "lat": 83.01077258518276,
        "lon": 14.304674227657074,
        "alt_km": 1050.4114084282337,
        "timestamp": "2025-12-25T14:48:25.045631+00:00",
        "meta_object_name": "OSCAR 32",
        "meta_object_id": "1988-033B",
        "meta_epoch": "2025-12-25T01:46:19.026912",
        "meta_mean_motion": 13.27955759,
        "meta_eccentricity": 0.01892356,
        "meta_inclination": 90.3208,
        "meta_ra_of_asc_node": 16.907,
        "meta_arg_of_pericenter": 132.6407,
        "meta_mean_anomaly": 237.0138,
        "meta_ephemeris_type": 0,
        "meta_classification_type": "U",
        "meta_norad_cat_id": 19071,
        "meta_element_set_no": 999,
        "meta_rev_at_epoch": 82429,
        "meta_bstar": 9.9554128e-05,
        "meta_mean_motion_dot": 5.9e-07,
        "meta_mean_motion_ddot": 0,
        "tle_line1": "1 19071U 88033B   25359.07383133  .00000059  00000+0  99554-4 0  9991",
        "tle_line2": "2 19071  90.3208  16.9070 0189235 132.6407 237.0138 13.27955759824298"
      },
      "geometry": {
        "type": "Point",
        "coordinates": [
          14.304674227657074,
          83.01077258518276
        ]
      }
    },
    {
      "type": "Feature",
      "properties": {
        "norad_id": 19223,
        "name": "NOVA 2",
        "group": "nnss",
        "lat": 49.796156398211515,
        "lon": 78.27242189628362,
        "alt_km": 1160.8584408267943,
        "timestamp": "2025-12-25T14:48:25.045640+00:00",
        "meta_object_name": "NOVA 2",
        "meta_object_id": "1988-052A",
        "meta_epoch": "2025-12-25T05:45:03.256992",
        "meta_mean_motion": 13.22937288,
        "meta_eccentricity": 0.00295267,
        "meta_inclination": 89.9863,
        "meta_ra_of_asc_node": 78.2567,
        "meta_arg_of_pericenter": 342.2232,
        "meta_mean_anomaly": 71.2778,
        "meta_ephemeris_type": 0,
        "meta_classification_type": "U",
        "meta_norad_cat_id": 19223,
        "meta_element_set_no": 999,
        "meta_rev_at_epoch": 81113,
        "meta_bstar": 0.00013822549,
        "meta_mean_motion_dot": 6.7e-07,
        "meta_mean_motion_ddot": 0,
        "tle_line1": "1 19223U 88052A   25359.23962103  .00000067  00000+0  13823-3 0  9992",
        "tle_line2": "2 19223  89.9863  78.2567 0029526 342.2232  71.2778 13.22937288811130"
      },
      "geometry": {
        "type": "Point",
        "coordinates": [
          78.27242189628362,
          49.796156398211515
        ]
      }
    },
    {
      "type": "Feature",
      "properties": {
        "norad_id": 19419,
        "name": "OSCAR 25",
        "group": "nnss",
        "lat": -41.87447015443405,
        "lon": 20.315959569001205,
        "alt_km": 1129.4034734559264,
        "timestamp": "2025-12-25T14:48:25.045650+00:00",
        "meta_object_name": "OSCAR 25",
        "meta_object_id": "1988-074A",
        "meta_epoch": "2025-12-25T01:01:12.412128",
        "meta_mean_motion": 13.42625537,
        "meta_eccentricity": 0.00952001,
        "meta_inclination": 90.0336,
        "meta_ra_of_asc_node": 20.2839,
        "meta_arg_of_pericenter": 210.2725,
        "meta_mean_anomaly": 211.9682,
        "meta_ephemeris_type": 0,
        "meta_classification_type": "U",
        "meta_norad_cat_id": 19419,
        "meta_element_set_no": 999,
        "meta_rev_at_epoch": 82805,
        "meta_bstar": 0.00012533496,
        "meta_mean_motion_dot": 8.2e-07,
        "meta_mean_motion_ddot": 0,
        "tle_line1": "1 19419U 88074A   25359.04250477  .00000082  00000+0  12533-3 0  9990",
        "tle_line2": "2 19419  90.0336  20.2839 0095200 210.2725 211.9682 13.42625537828056"
      },
      "geometry": {
        "type": "Point",
        "coordinates": [
          20.315959569001205,
          -41.87447015443405
        ]
      }
    },
    {
      "type": "Feature",
      "properties": {
        "norad_id": 19420,
        "name": "OSCAR 31",
        "group": "nnss",
        "lat": -19.202958007717566,
        "lon": -159.37437326856212,
        "alt_km": 1034.8857650738464,
        "timestamp": "2025-12-25T14:48:25.045660+00:00",
        "meta_object_name": "OSCAR 31",
        "meta_object_id": "1988-074B",
        "meta_epoch": "2025-12-25T01:25:51.942144",
        "meta_mean_motion": 13.42586559,
        "meta_eccentricity": 0.00935959,
        "meta_inclination": 90.0354,
        "meta_ra_of_asc_node": 20.636,
        "meta_arg_of_pericenter": 204.3708,
        "meta_mean_anomaly": 182.6411,
        "meta_ephemeris_type": 0,
        "meta_classification_type": "U",
        "meta_norad_cat_id": 19420,
        "meta_element_set_no": 999,
        "meta_rev_at_epoch": 82816,
        "meta_bstar": 0.00010568619,
        "meta_mean_motion_dot": 7e-07,
        "meta_mean_motion_ddot": 0,
        "tle_line1": "1 19420U 88074B   25359.05962896  .00000070  00000+0  10569-3 0  9992",
        "tle_line2": "2 19420  90.0354  20.6360 0093595 204.3708 182.6411 13.42586559828167"
      },
      "geometry": {
        "type": "Point",
        "coordinates": [
          -159.37437326856212,
          -19.202958007717566
        ]
      }
    }
  ]
}